O3B MPOWER F1           
1 54755U 22174A   24250.06661953 -.00000022  00000+0  00000+0 0  9994
2 54755   0.0562 345.5466 0006595 173.4016 145.2619  5.00113757 32889
